Object Data Page

 Revised: April 12, 2021                 Earth                              399
 
 GEOPHYSICAL PROPERTIES (revised Aug 15, 2018):
  Vol. Mean Radius (km)    = 6371.01+-0.02   Mass x10^24 (kg)= 5.97219+-0.0006
  Equ. radius, km          = 6378.137        Mass layers:
  Polar axis, km           = 6356.752          Atmos         = 5.1   x 10^18 kg
  Flattening               = 1/298.257223563   oceans        = 1.4   x 10^21 kg
  Density, g/cm^3          = 5.51              crust         = 2.6   x 10^22 kg
  J2 (IERS 2010)           = 0.00108262545     mantle        = 4.043 x 10^24 kg
  g_p, m/s^2  (polar)      = 9.8321863685      outer core    = 1.835 x 10^24 kg
  g_e, m/s^2  (equatorial) = 9.7803267715      inner core    = 9.675 x 10^22 kg
  g_o, m/s^2               = 9.82022         Fluid core rad  = 3480 km
  GM, km^3/s^2             = 398600.435436   Inner core rad  = 1215 km
  GM 1-sigma, km^3/s^2     =      0.0014     Escape velocity = 11.186 km/s
  Rot. Rate (rad/s)        = 0.00007292115   Surface area:
  Mean sidereal day, hr    = 23.9344695944     land          = 1.48 x 10^8 km
  Mean solar day 2000.0, s = 86400.002         sea           = 3.62 x 10^8 km
  Mean solar day 1820.0, s = 86400.0         Love no., k2    = 0.299
  Moment of inertia        = 0.3308          Atm. pressure   = 1.0 bar
  Mean temperature, K      = 270             Volume, km^3    = 1.08321 x 10^12
  Mean effect. IR temp, K  = 255             Magnetic moment = 0.61 gauss Rp^3
  Geometric albedo         = 0.367           Vis. mag. V(1,0)= -3.86
  Solar Constant (W/m^2)   = 1367.6 (mean), 1414 (perihelion), 1322 (aphelion)
 HELIOCENTRIC ORBIT CHARACTERISTICS:
  Obliquity to orbit, deg  = 23.4392911  Sidereal orb period  = 1.0000174 y
  Orbital speed, km/s      = 29.79       Sidereal orb period  = 365.25636 d
  Mean daily motion, deg/d = 0.9856474   Hill's sphere radius = 234.9       

Results

 
 
*******************************************************************************
Ephemeris / WWW_USER Tue Jun  8 17:21:26 2021 Pasadena, USA      / Horizons
*******************************************************************************
Target body name: Earth (399)                     {source: DE441}
Center body name: Solar System Barycenter (0)     {source: DE441}
Center-site name: BODY CENTER
*******************************************************************************
Start time      : A.D. 2030-Jan-01 00:00:00.0000 TDB
Stop  time      : A.D. 2040-Jan-01 00:00:00.0000 TDB
Step-size       : 1440 minutes
*******************************************************************************
Center geodetic : 0.00000000,0.00000000,0.0000000 {E-lon(deg),Lat(deg),Alt(km)}
Center cylindric: 0.00000000,0.00000000,0.0000000 {E-lon(deg),Dxy(km),Dz(km)}
Center radii    : (undefined)                                                  
Output units    : AU-D
Output type     : GEOMETRIC cartesian states
Output format   : 3 (position, velocity, LT, range, range-rate)
Reference frame : Ecliptic of J2000.0
*******************************************************************************
JDTDB
   X     Y     Z
   VX    VY    VZ
   LT    RG    RR
*******************************************************************************
$$SOE
2466113.500000000 = A.D. 2039-Nov-21 00:00:00.0000 TDB 
 X = 5.308881674933092E-01 Y = 8.352281266458245E-01 Z =-2.592856253224449E-04
 VX=-1.486951553616203E-02 VY= 9.064475720645197E-03 VZ=-3.095694023214087E-07
 LT= 5.715861978154609E-03 RG= 9.896708226242366E-01 RR=-3.265173547316985E-04
2466114.500000000 = A.D. 2039-Nov-22 00:00:00.0000 TDB 
 X = 5.159395713423274E-01 Y = 8.441629437642659E-01 Z =-2.596507659027360E-04
 VX=-1.502687940613586E-02 VY= 8.804727991147433E-03 VZ=-4.235843705723201E-07
 LT= 5.713983847644753E-03 RG= 9.893456344069932E-01 RR=-3.237862464233059E-04
2466115.500000000 = A.D. 2039-Nov-23 00:00:00.0000 TDB 
 X = 5.008359963324847E-01 Y = 8.528367429151792E-01 Z =-2.601368739230485E-04
 VX=-1.517948038913881E-02 VY= 8.542460143804959E-03 VZ=-5.498647820672070E-07
 LT= 5.712122739582088E-03 RG= 9.890233935351161E-01 RR=-3.206255362725413E-04
2466116.500000000 = A.D. 2039-Nov-24 00:00:00.0000 TDB 
 X = 4.855821840141614E-01 Y = 8.612470604818040E-01 Z =-2.607514528612297E-04
 VX=-1.532736085321781E-02 VY= 8.277780826482372E-03 VZ=-6.790581867099746E-07
 LT= 5.710281070122902E-03 RG= 9.887045183530978E-01 RR=-3.170601239031856E-04
2466117.500000000 = A.D. 2039-Nov-25 00:00:00.0000 TDB 
 X = 4.701828354448428E-01 Y = 8.693915295296586E-01 Z =-2.614932234881214E-04
 VX=-1.547055859076616E-02 VY= 8.010775840127066E-03 VZ=-8.029954320807457E-07
 LT= 5.708461077002510E-03 RG= 9.883893963127981E-01 RR=-3.131258135016332E-04
2466118.500000000 = A.D. 2039-Nov-26 00:00:00.0000 TDB 
 X = 4.546426176575190E-01 Y = 8.772678600740708E-01 Z =-2.623533909632547E-04
 VX=-1.560910355738268E-02 VY= 7.741514191374927E-03 VZ=-9.148168572562032E-07
 LT= 5.706664772958208E-03 RG= 9.880783759088761E-01 RR=-3.088640331078970E-04
2466119.500000000 = A.D. 2039-Nov-27 00:00:00.0000 TDB 
 X = 4.389661721004968E-01 Y = 8.848738247464881E-01 Z =-2.633169423061381E-04
 VX=-1.574301691848197E-02 VY= 7.470052750902082E-03 VZ=-1.008933162560125E-06
 LT= 5.704893923095794E-03 RG= 9.877717627599271E-01 RR=-3.043187413674850E-04
2466120.500000000 = A.D. 2039-Nov-28 00:00:00.0000 TDB 
 X = 4.231581234783616E-01 Y = 8.922072483637566E-01 Z =-2.643638766655896E-04
 VX=-1.587231101566210E-02 VY= 7.196439451185342E-03 VZ=-1.080945021504788E-06
 LT= 5.703150035382940E-03 RG= 9.874698179624599E-01 RR=-2.995348442563450E-04
2466121.500000000 = A.D. 2039-Nov-29 00:00:00.0000 TDB 
 X = 4.072230885251212E-01 Y = 8.992660001496232E-01 Z =-2.654703610428561E-04
 VX=-1.599698945209876E-02 VY= 6.920715487575903E-03 VZ=-1.127579154465112E-06
 LT= 5.701434357755401E-03 RG= 9.871727575898523E-01 RR=-2.945573766364821E-04
2466122.500000000 = A.D. 2039-Nov-30 00:00:00.0000 TDB 
 X = 3.911656847594469E-01 Y = 9.060479878896804E-01 Z =-2.666098351163845E-04
 VX=-1.611704703500554E-02 VY= 6.642917065159852E-03 VZ=-1.146648908095073E-06
 LT= 5.699747879107363E-03 RG= 9.868807528638249E-01 RR=-2.894309090589673E-04
2466123.500000000 = A.D. 2039-Dec-01 00:00:00.0000 TDB 
 X = 3.749905393415532E-01 Y = 9.125511537715894E-01 Z =-2.677540818800420E-04
 VX=-1.623246966183068E-02 VY= 6.363077063678098E-03 VZ=-1.137021335414526E-06
 LT= 5.698091333741040E-03 RG= 9.865939309248644E-01 RR=-2.841989232929422E-04
2466124.500000000 = A.D. 2039-Dec-02 00:00:00.0000 TDB 
 X = 3.587022979804393E-01 Y = 9.187734719078759E-01 Z =-2.688742588923561E-04
 VX=-1.634323437079560E-02 VY= 6.081226735729088E-03 VZ=-1.098568084652027E-06
 LT= 5.696465209577152E-03 RG= 9.863123762538252E-01 RR=-2.789031497917596E-04
2466125.500000000 = A.D. 2039-Dec-03 00:00:00.0000 TDB 
 X = 3.423056336309416E-01 Y = 9.247129475343324E-01 Z =-2.699418665692450E-04
 VX=-1.644930972812567E-02 VY= 5.797397327326252E-03 VZ=-1.032087969175981E-06
 LT= 5.694869759961084E-03 RG= 9.860361327161012E-01 RR=-2.735830170354099E-04
2466126.500000000 = A.D. 2039-Dec-04 00:00:00.0000 TDB 
 X = 3.258052546231112E-01 Y = 9.303676176955534E-01 Z =-2.709296264667259E-04
 VX=-1.655065656116709E-02 VY= 5.511621390366298E-03 VZ=-9.392068592768451E-07
 LT= 5.693305017860511E-03 RG= 9.857652060198677E-01 RR=-2.682754031302954E-04
2466127.500000000 = A.D. 2039-Dec-05 00:00:00.0000 TDB 
 X = 3.092059119554498E-01 Y = 9.357355529951774E-01 Z =-2.718122569310127E-04
 VX=-1.664722885164080E-02 VY= 5.223933571745883E-03 VZ=-8.222773694657084E-07
 LT= 5.691770810296010E-03 RG= 9.854995662146658E-01 RR=-2.630148144311136E-04
2466128.500000000 = A.D. 2039-Dec-06 00:00:00.0000 TDB 
 X = 2.925124057519581E-01 Y = 9.408148598314301E-01 Z =-2.725671616576064E-04
 VX=-1.673897444942744E-02 VY= 4.934370797009180E-03 VZ=-6.843107178440072E-07
 LT= 5.690266770497793E-03 RG= 9.852391497962762E-01 RR=-2.578339784913968E-04
2466129.500000000 = A.D. 2039-Dec-07 00:00:00.0000 TDB 
 X = 2.757295912652892E-01 Y = 9.456036825570904E-01 Z =-2.731750800503279E-04
 VX=-1.682583519781679E-02 VY= 4.642971977093437E-03 VZ=-5.289733908763091E-07
 LT= 5.688792345841276E-03 RG= 9.849838610807176E-01 RR=-2.527646670948453E-04
2466130.500000000 = A.D. 2039-Dec-08 00:00:00.0000 TDB 
 X = 2.588623852101102E-01 Y = 9.501002052552306E-01 Z =-2.736207767951660E-04
 VX=-1.690774609369642E-02 VY= 4.349777619102459E-03 VZ=-3.606712990087099E-07
 LT= 5.687346801204490E-03 RG= 9.847335727855674E-01 RR=-2.478383815429318E-04
2466131.500000000 = A.D. 2039-Dec-09 00:00:00.0000 TDB 
 X = 2.419157735218605E-01 Y = 9.543026533391162E-01 Z =-2.738938611441562E-04
 VX=-1.698463326042653E-02 VY= 4.054829996331013E-03 VZ=-1.847227602281275E-07
 LT= 5.685929220061087E-03 RG= 9.844881262192067E-01 RR=-2.430863429182310E-04
2466132.500000000 = A.D. 2039-Dec-10 00:00:00.0000 TDB 
 X = 2.248948217109260E-01 Y = 9.582092959775907E-01 Z =-2.739898108431252E-04
 VX=-1.705641084286977E-02 VY= 3.758174803389930E-03 VZ=-7.584744511292485E-09
 LT= 5.684538509372018E-03 RG= 9.842473321277917E-01 RR=-2.385380516427857E-04
2466133.500000000 = A.D. 2039-Dec-11 00:00:00.0000 TDB 
 X = 2.078046885973164E-01 Y = 9.618184513718721E-01 Z =-2.739112129664052E-04
 VX=-1.712297753850706E-02 VY= 3.459865384853090E-03 VZ= 1.629611563599507E-07
 LT= 5.683173418899135E-03 RG= 9.840109740392972E-01 RR=-2.342176048348035E-04
2466134.500000000 = A.D. 2039-Dec-12 00:00:00.0000 TDB 
 X = 1.906506430566538E-01 Y = 9.651284979387970E-01 Z =-2.736691031592809E-04
 VX=-1.718421440842825E-02 VY= 3.159970411313931E-03 VZ= 3.178326511989798E-07
 LT= 5.681832589750130E-03 RG= 9.837788166688138E-01 RR=-2.301372157365737E-04
2466135.500000000 = A.D. 2039-Dec-13 00:00:00.0000 TDB 
 X = 1.734380812335118E-01 Y = 9.681378948978302E-01 Z =-2.732840804262604E-04
 VX=-1.723998664571695E-02 VY= 2.858584835213715E-03 VZ= 4.471121755280689E-07
 LT= 5.680514647864335E-03 RG= 9.835506221051120E-01 RR=-2.262883239157790E-04
